P/2016 J1-A (PANSTARRS),e,14.3288,199.8122,47.0063,3.171898,0.1744718,0.22767046,26.7348,07/24.0/2022,2000,g 16.5,4.0
# From MPEC 2017-A77
P/2016 J1-B (PANSTARRS),e,14.3316,199.8170,46.8974,3.171531,0.1745021,0.22752138,26.8774,07/24.0/2022,2000,g 17.0,4.0
# From MPEC 2022-ED3
C/2016 M1 (PANSTARRS),e,90.9087,92.2478,209.9374,774470,0.0000000,0.99999714,0.0000,08/10.5654/2018,2000,g  5.0,4.0
# From MPEC 2022-K19
C/2016 N4 (MASTER),e,72.6540,353.9901,55.9578,6439,0.0000019,0.99950359,0.0000,09/17.5918/2017,2000,g  8.5,4.0
# From MPEC 2021-P47
C/2016 N6 (PANSTARRS),e,105.8509,298.9448,162.6110,1038,0.0000295,0.99743575,0.0000,07/17.6426/2018,2000,g  7.0,4.0
# From MPC102099
P/2016 P1 (PANSTARRS),e,24.4448,319.5649,270.2927,3.196816,0.1724359,0.28936759,70.3781,07/24.0/2022,2000,g 15.0,4.0
# From MPEC 2022-M21
C/2016 Q2 (PANSTARRS),h,05/12.2574/2021,109.3864,322.3023,84.5512,1.002400,7.081988,2000,6.0,4.0
# From MPC102955
C/2016 Q4 (Kowalski),e,7.2491,271.2968,99.6083,17.00345,0.0140572,0.58284094,22.9878,07/24.0/2022,2000,g  7.0,4.0
# From MPEC 2021-N06
C/2016 R2 (PANSTARRS),e,58.2996,80.5261,33.1025,475.8225,0.0000950,0.99454019,0.0000,05/09.0477/2018,2000,g  7.0,4.0
# From MPEC 2022-K19
P/2016 R4 (Gibbs),e,10.8781,168.2613,174.1086,5.332137,0.0800483,0.47636070,175.3967,07/24.0/2022,2000,g 12.5,4.0
# From MPC105543
P/2016 S1 (PANSTARRS),e,94.7201,227.6288,273.2685,8.277003,0.0413899,0.71014873,80.9472,07/24.0/2022,2000,g 12.0,4.0
# From MPC110082
C/2016 T3 (PANSTARRS),e,22.7108,271.6678,194.5759,129.0467,0.0006723,0.97955027,0.0000,09/06.8062/2017,2000,g 10.5,4.0
# From MPC106345
P/2016 WM48 (Lemmon),e,117.5516,59.9247,36.1247,8.167541,0.0422247,0.78350958,83.4691,07/24.0/2022,2000,g 15.0,4.0
# From MPEC 2021-P47
C/2016 X1 (Lemmon),e,26.4559,256.3592,224.4729,1287,0.0000213,0.99412798,0.0000,04/27.7894/2019,2000,g  6.0,4.0
# From MPC114598
C/2017 AB5 (PANSTARRS),e,32.4607,42.6027,78.2852,2412,0.0000083,0.99618302,0.0000,02/14.4068/2018,2000,g  5.5,4.0
# From MPEC 2022-A21
C/2017 B3 (LINEAR),h,02/01.8578/2019,54.1583,2.1747,284.8256,1.000630,3.927667,2000,6.0,4.0
# From MPC103847
P/2017 B4 (PANSTARRS),e,20.0584,121.4578,11.0197,4.410520,0.1064068,0.36495152,359.9130,01/05.0/2017,2000,g 14.5,4.0
# From MPC104793
P/2017 D1 (Fuls),e,20.7634,82.1849,7.9587,4.828399,0.0928965,0.43667850,206.4371,07/24.0/2022,2000,g 14.0,4.0
# From MPEC 2022-K19
P/2017 D4 (PANSTARRS),e,10.5435,264.9399,212.1663,7.550937,0.0475010,0.62865134,102.0418,07/24.0/2022,2000,g 13.0,4.0
# From MPC111769
C/2017 F1 (Lemmon),h,11/28.3642/2017,146.4632,158.7878,64.7190,1.001668,4.498707,2000,10.5,4.0
# From MPC114598
C/2017 F2 (PANSTARRS),h,11/25.7951/2017,42.5542,38.7029,134.9130,1.001958,6.925652,2000,7.5,4.0
# From MPC104794
P/2017 G1 (PANSTARRS),e,4.7813,249.6603,224.3936,7.277695,0.0502011,0.65340096,114.4120,07/24.0/2022,2000,g 13.5,4.0
# From MPC108595
P/2017 G2 (PANSTARRS),e,47.9563,79.8219,105.4528,8.054439,0.0431173,0.64754196,80.6488,07/24.0/2022,2000,g 13.0,4.0
# From MPC115882
C/2017 K1 (PANSTARRS),h,03/17.9637/2018,154.0214,225.7225,4.4306,1.003452,7.285313,2000,7.0,4.0
# From MPEC 2022-M21
C/2017 K2 (PANSTARRS),h,12/19.6830/2022,87.5617,88.2353,236.1971,1.000793,1.796928,2000,1.5,4.0
# From MPEC 2021-N06
P/2017 K3 (Gasparovic),e,4.2731,354.2894,253.4407,5.584549,0.0746830,0.57937080,140.5518,07/24.0/2022,2000,g 14.5,4.0
# From MPC114598
C/2017 K4 (ATLAS),e,16.6669,298.9055,15.3375,28.68801,0.0064144,0.90728764,10.6329,07/24.0/2022,2000,g 10.0,4.0
# From MPEC 2021-P47
C/2017 K5 (PANSTARRS),h,03/27.3754/2020,82.2447,102.3797,172.0650,1.005372,7.683650,2000,5.0,4.0
# From MPC114599
C/2017 K6 (Jacques),e,57.2239,84.9197,303.7949,1206,0.0000235,0.99834495,0.0000,01/03.9823/2018,2000,g 11.0,4.0
# From MPEC 2021-Y10
C/2017 M4 (ATLAS),h,01/17.9708/2019,105.6436,65.9461,167.6169,1.001377,3.253014,2000,6.0,4.0
# From MPC118841
C/2017 M5 (TOTAS),h,06/04.4036/2018,15.8644,216.2891,92.8524,1.005297,6.002922,2000,6.5,4.0
# From MPC114599
C/2017 O1 (ASASSN),e,39.9832,25.7170,20.8404,375.4862,0.0001355,0.99602957,0.0000,10/15.8215/2017,2000,g 11.0,4.0
# From MPC114599
P/2017 P1 (PANSTARRS),e,7.6904,221.3722,122.6349,7.910095,0.0443028,0.31099056,66.1314,07/24.0/2022,2000,g 10.0,4.0
# From MPC114599
C/2017 P2 (PANSTARRS),e,50.0482,165.4560,132.5043,2565,0.0000076,0.99903513,0.0000,12/06.0313/2017,2000,g 10.0,4.0
# From MPC108595
C/2017 S2 (PANSTARRS),e,12.6692,62.3246,306.1229,20.64776,0.0105050,0.82493973,18.7854,07/24.0/2022,2000,g 13.0,4.0
# From MPC114599
C/2017 S3 (PANSTARRS),h,08/16.5260/2018,99.2113,171.3189,255.8375,1.000089,0.205796,2000,12.9,4.0
# From MPC109591
C/2017 S6 (Catalina),h,02/26.1349/2018,152.8657,131.0955,134.9812,1.000890,1.550781,2000,12.5,4.0
# From MPC114599
P/2017 S8 (PANSTARRS),e,29.8587,191.5263,254.8224,2.779113,0.2127379,0.39091960,348.4400,07/24.0/2022,2000,g 16.0,4.0
# From MPC107050
P/2017 S9 (PANSTARRS),e,14.1431,146.2245,237.6183,3.155382,0.1758434,0.30559571,321.6028,07/24.0/2022,2000,g 17.0,4.0
# From MPC114600
C/2017 T1 (Heinze),e,96.8980,102.5096,97.0231,10845,0.0000009,0.99994598,0.0000,02/20.6641/2018,2000,g 14.5,4.0
# From MPEC 2021-Y10
C/2017 T2 (PANSTARRS),e,57.2485,64.3961,92.9567,1724,0.0000138,0.99906340,0.0000,05/04.7942/2020,2000,g  5.0,4.0
# From MPC114600
C/2017 T3 (ATLAS),e,88.2132,230.1948,246.8130,1199,0.0000238,0.99931238,0.0000,07/18.9946/2018,2000,g 10.0,4.0
# From MPC115882
P/2017 TW13 (Lemmon),e,44.8495,322.2794,119.9148,7.136687,0.0516963,0.71002827,77.2109,07/24.0/2022,2000,g 15.0,2.0
# From MPC114600
C/2017 U2 (Fuls),e,95.3913,149.7127,147.8889,2718,0.0000070,0.99752871,0.0000,08/28.1952/2017,2000,g  9.0,4.0
# From MPEC 2022-K19
P/2017 U3 (PANSTARRS),e,15.9187,165.1108,296.3784,4.926138,0.0901455,0.09937292,108.0358,07/24.0/2022,2000,g 11.0,4.0
# From MPEC 2021-P47
C/2017 U4 (PANSTARRS),h,09/22.0313/2018,158.2048,245.9187,158.9753,1.000140,7.721726,2000,7.0,4.0
# From MPC114600
C/2017 U5 (PANSTARRS),e,18.9789,163.0866,261.9928,16.89949,0.0141871,0.74463062,23.8016,07/24.0/2022,2000,g 12.0,4.0
# From MPEC 2022-M21
C/2017 U7 (PANSTARRS),h,09/14.8923/2019,142.6046,276.2561,326.3930,1.001137,6.427014,2000,8.3,2.0
# From MPC114600
C/2017 W2 (Leonard),e,98.2053,312.8207,168.8942,13.61615,0.0196165,0.71022740,33.8699,07/24.0/2022,2000,g 11.0,4.0
# From MPC114601
P/2017 W3 (Gibbs),e,18.1670,210.2301,327.8355,7.834817,0.0449429,0.50645006,72.2570,07/24.0/2022,2000,g 10.5,4.0
# From MPEC 2021-R75
C/2017 X1 (PANSTARRS),e,31.3266,251.1458,283.1882,31.07574,0.0056895,0.84982869,8.5389,07/24.0/2022,2000,g 10.0,4.0
# From MPEC 2022-N37
C/2017 Y1 (PANSTARRS),e,55.2544,307.4951,134.2416,1804,0.0000129,0.99794679,0.0000,08/31.6725/2017,2000,g 11.5,4.0
# From MPEC 2022-O08
C/2017 Y2 (PANSTARRS),h,11/05.0227/2020,128.4280,66.0023,147.9305,1.001202,4.633004,2000,15.0,4.0
# From MPC111770
P/2017 Y3 (Leonard),e,27.5588,153.8453,67.6016,9.828682,0.0319861,0.86959175,52.0029,07/24.0/2022,2000,g 16.5,4.0
# From MPC114601
C/2018 A1 (PANSTARRS),e,53.6111,336.6552,96.1848,25.10933,0.0078334,0.90412755,13.6035,07/24.0/2022,2000,g 12.5,4.0
# From MPEC 2021-P47
C/2018 A3 (ATLAS),e,139.5362,194.2924,86.3537,385.8800,0.0001300,0.99150739,0.0000,01/11.4660/2019,2000,g  8.5,4.0
# From MPC114601
C/2018 A4 (PANSTARRS),e,3.1497,97.5968,355.9636,12.18417,0.0231745,0.80364364,35.3872,07/24.0/2022,2000,g 14.0,4.0
# From MPC109147
P/2018 A5 (PANSTARRS),e,23.6001,87.7990,359.4931,5.629820,0.0737840,0.52304227,130.1855,07/24.0/2022,2000,g 15.0,4.0
# From MPEC 2022-C56
C/2018 A6 (Gibbs),e,77.0553,340.3806,264.3759,15.08148,0.0168282,0.79991824,18.6438,07/24.0/2022,2000,g  9.0,4.0
# From MPEC 2022-O08
C/2018 B1 (Lemmon),e,162.4193,133.1912,68.3767,6168,0.0000020,0.99916881,0.0000,03/28.0067/2018,2000,g  9.0,4.0
# From MPC114601
P/2018 C1 (Lemmon-Read),e,5.1134,270.3476,235.7006,5.653150,0.0733277,0.53207200,118.1474,07/24.0/2022,2000,g 13.5,4.0
# From MPC114601
C/2018 C2 (Lemmon),h,05/31.6531/2018,34.4630,91.2173,134.0554,1.000169,1.960815,2000,13.0,4.0
# From MPEC 2022-M88
C/2018 DO4 (Lemmon),e,160.4458,251.4201,176.2821,25.38492,0.0077062,0.90498121,8.2593,07/24.0/2022,2000,g 11.0,4.0
# From MPC114602
C/2018 E1 (ATLAS),e,72.5109,146.8552,299.3040,53.85527,0.0024938,0.94996800,3.8856,07/24.0/2022,2000,g 10.5,4.0
# From MPEC 2022-N37
C/2018 E2 (Barros),e,97.6386,67.1626,277.4454,3012,0.0000060,0.99869904,0.0000,12/23.8313/2017,2000,g 10.5,4.0
# From MPC114602
C/2018 EN4 (NEOWISE),e,81.9237,136.1281,35.0440,17.95615,0.0129534,0.91862458,19.5889,07/24.0/2022,2000,g 15.0,4.0
# From MPC114602
C/2018 EF9 (Lemmon),e,84.6149,172.5524,72.6276,471.4903,0.0000963,0.99669025,0.0000,05/21.6801/2018,2000,g 18.0,2.0
# From MPEC 2021-R75
C/2018 F1 (Grauer),e,46.0767,177.2755,71.6022,249.4734,0.0002501,0.98798887,0.0000,12/12.5319/2018,2000,g 11.5,4.0
# From MPC110084
C/2018 F3 (Johnson),p,08/15.2314/2017,105.5348,293.0113,2.483172,173.0311,2000,13.0,4.0
# From MPEC 2021-W31
C/2018 F4 (PANSTARRS),h,12/03.6227/2019,78.0845,26.5156,263.2279,1.000244,3.442516,2000,11.0,6.0
# From MPEC 2021-Y10
C/2018 F4-A,h,12/03.6110/2019,78.0847,26.5158,263.2247,1.000192,3.442385,2000,11.0,6.0
# From MPEC 2021-W31
C/2018 F4-B,h,12/03.5472/2019,78.0855,26.5154,263.2097,1.000288,3.442167,2000,11.0,6.0
# From MPC114602
P/2018 H2 (PANSTARRS),e,7.4037,68.0950,119.9961,4.384532,0.1073543,0.54170531,176.6636,07/24.0/2022,2000,g 16.6,2.0
# From MPC114602
C/2018 K1 (Weiland),e,164.1906,260.1431,325.2184,30.17860,0.0059450,0.93762149,9.3249,07/24.0/2022,2000,g 14.9,4.0
# From MPEC 2021-R75
C/2018 KJ3 (Lemmon),e,136.6869,91.6377,217.6777,963.0951,0.0000330,0.99623223,0.0000,09/09.9611/2019,2000,g 12.2,2.0
# From MPC114602
P/2018 L1 (PANSTARRS),e,10.5829,268.6234,18.0356,3.653031,0.1411640,0.48211563,190.5555,07/24.0/2022,2000,g 15.0,4.0
# From MPEC 2021-P47
C/2018 L2 (ATLAS),e,67.2926,243.0097,56.3144,260.4486,0.0002345,0.99341504,0.0000,12/02.4673/2018,2000,g 10.0,4.0
# From MPC114603
